{"type": "FeatureCollection", "features": [{"type": "Feature", "properties": {"norad_id": 24876, "name": "GPS BIIR-2  (PRN 13)", "group": "gnss", "lat": 51.75844371888011, "lon": -133.11952414479597, "alt_km": 20014.985640220973, "timestamp": "2025-12-06T09:34:17.155769+00:00", "meta": {"OBJECT_NAME": "GPS BIIR-2  (PRN 13)", "OBJECT_ID": "1997-035A", "EPOCH": "2025-12-05T18:03:38.663712", "MEAN_MOTION": 2.00563458, "ECCENTRICITY": 0.00967066, "INCLINATION": 55.8919, "RA_OF_ASC_NODE": 106.1422, "ARG_OF_PERICENTER": 57.0175, "MEAN_ANOMALY": 303.8711, "EPHEMERIS_TYPE": 0, "CLASSIFICATION_TYPE": "U", "NORAD_CAT_ID": 24876, "ELEMENT_SET_NO": 999, "REV_AT_EPOCH": 20807, "BSTAR": 0, "MEAN_MOTION_DOT": 4e-08, "MEAN_MOTION_DDOT": 0}, "tle": {"line1": "1 24876U 97035A   25339.75253083  .00000004  00000+0  00000+0 0  9998", "line2": "2 24876  55.8919 106.1422 0096706  57.0175 303.8711  2.00563458208078"}}, "geometry": {"type": "Point", "coordinates": [-133.11952414479597, 51.75844371888011]}}, {"type": "Feature", "properties": {"norad_id": 26360, "name": "GPS BIIR-4  (PRN 20)", "group": "gnss", "lat": -15.537322386790114, "lon": -141.6779677630902, "alt_km": 20107.390153559343, "timestamp": "2025-12-06T09:34:17.155816+00:00", "meta": {"OBJECT_NAME": "GPS BIIR-4  (PRN 20)", "OBJECT_ID": "2000-025A", "EPOCH": "2025-12-05T20:58:35.104224", "MEAN_MOTION": 2.00568129, "ECCENTRICITY": 0.00388196, "INCLINATION": 55.0411, "RA_OF_ASC_NODE": 27.1157, "ARG_OF_PERICENTER": 241.3366, "MEAN_ANOMALY": 299.1128, "EPHEMERIS_TYPE": 0, "CLASSIFICATION_TYPE": "U", "NORAD_CAT_ID": 26360, "ELEMENT_SET_NO": 999, "REV_AT_EPOCH": 18739, "BSTAR": 0, "MEAN_MOTION_DOT": -7.6e-07, "MEAN_MOTION_DDOT": 0}, "tle": {"line1": "1 26360U 00025A   25339.87401741 -.00000076  00000+0  00000+0 0  9990", "line2": "2 26360  55.0411  27.1157 0038819 241.3366 299.1128  2.00568129187395"}}, "geometry": {"type": "Point", "coordinates": [-141.6779677630902, -15.537322386790114]}}, {"type": "Feature", "properties": {"norad_id": 26407, "name": "GPS BIIR-5  (PRN 22)", "group": "gnss", "lat": 31.957313424567463, "lon": -111.16515403409748, "alt_km": 20223.778749922923, "timestamp": "2025-12-06T09:34:17.155835+00:00", "meta": {"OBJECT_NAME": "GPS BIIR-5  (PRN 22)", "OBJECT_ID": "2000-040A", "EPOCH": "2025-12-05T20:58:54.723936", "MEAN_MOTION": 2.00567754, "ECCENTRICITY": 0.01263842, "INCLINATION": 54.8925, "RA_OF_ASC_NODE": 222.8421, "ARG_OF_PERICENTER": 301.6819, "MEAN_ANOMALY": 78.5111, "EPHEMERIS_TYPE": 0, "CLASSIFICATION_TYPE": "U", "NORAD_CAT_ID": 26407, "ELEMENT_SET_NO": 999, "REV_AT_EPOCH": 18607, "BSTAR": 0, "MEAN_MOTION_DOT": 4.8e-07, "MEAN_MOTION_DDOT": 0}, "tle": {"line1": "1 26407U 00040A   25339.87424449  .00000048  00000+0  00000+0 0  9997", "line2": "2 26407  54.8925 222.8421 0126384 301.6819  78.5111  2.00567754186078"}}, "geometry": {"type": "Point", "coordinates": [-111.16515403409748, 31.957313424567463]}}, {"type": "Feature", "properties": {"norad_id": 27663, "name": "GPS BIIR-8  (PRN 16)", "group": "gnss", "lat": 3.1593589726794487, "lon": 40.41836452386857, "alt_km": 20398.66711603634, "timestamp": "2025-12-06T09:34:17.155851+00:00", "meta": {"OBJECT_NAME": "GPS BIIR-8  (PRN 16)", "OBJECT_ID": "2003-005A", "EPOCH": "2025-12-05T09:55:38.654112", "MEAN_MOTION": 2.005712, "ECCENTRICITY": 0.01471646, "INCLINATION": 54.9252, "RA_OF_ASC_NODE": 222.6697, "ARG_OF_PERICENTER": 51.6986, "MEAN_ANOMALY": 131.7082, "EPHEMERIS_TYPE": 0, "CLASSIFICATION_TYPE": "U", "NORAD_CAT_ID": 27663, "ELEMENT_SET_NO": 999, "REV_AT_EPOCH": 16742, "BSTAR": 0, "MEAN_MOTION_DOT": 5.3e-07, "MEAN_MOTION_DDOT": 0}, "tle": {"line1": "1 27663U 03005A   25339.41364183  .00000053  00000+0  00000+0 0  9990", "line2": "2 27663  54.9252 222.6697 0147164  51.6986 131.7082  2.00571200167424"}}, "geometry": {"type": "Point", "coordinates": [40.41836452386857, 3.1593589726794487]}}, {"type": "Feature", "properties": {"norad_id": 28190, "name": "GPS BIIR-11 (PRN 19)", "group": "gnss", "lat": -21.011255237664155, "lon": -92.1422303372412, "alt_km": 20465.00678599817, "timestamp": "2025-12-06T09:34:17.155864+00:00", "meta": {"OBJECT_NAME": "GPS BIIR-11 (PRN 19)", "OBJECT_ID": "2004-009A", "EPOCH": "2025-12-04T10:34:11.811072", "MEAN_MOTION": 2.00560931, "ECCENTRICITY": 0.0108199, "INCLINATION": 54.9938, "RA_OF_ASC_NODE": 283.5535, "ARG_OF_PERICENTER": 167.4954, "MEAN_ANOMALY": 192.2151, "EPHEMERIS_TYPE": 0, "CLASSIFICATION_TYPE": "U", "NORAD_CAT_ID": 28190, "ELEMENT_SET_NO": 999, "REV_AT_EPOCH": 15903, "BSTAR": 0, "MEAN_MOTION_DOT": -4.2e-07, "MEAN_MOTION_DDOT": 0}, "tle": {"line1": "1 28190U 04009A   25338.44041448 -.00000042  00000+0  00000+0 0  9998", "line2": "2 28190  54.9938 283.5535 0108199 167.4954 192.2151  2.00560931159030"}}, "geometry": {"type": "Point", "coordinates": [-92.1422303372412, -21.011255237664155]}}, {"type": "Feature", "properties": {"norad_id": 28474, "name": "GPS BIIR-13 (PRN 02)", "group": "gnss", "lat": 28.592116490183255, "lon": -5.112307459164459, "alt_km": 20145.37101808165, "timestamp": "2025-12-06T09:34:17.155878+00:00", "meta": {"OBJECT_NAME": "GPS BIIR-13 (PRN 02)", "OBJECT_ID": "2004-045A", "EPOCH": "2025-12-05T20:20:11.876352", "MEAN_MOTION": 2.0056901, "ECCENTRICITY": 0.01706228, "INCLINATION": 55.2441, "RA_OF_ASC_NODE": 332.6831, "ARG_OF_PERICENTER": 308.9503, "MEAN_ANOMALY": 46.5475, "EPHEMERIS_TYPE": 0, "CLASSIFICATION_TYPE": "U", "NORAD_CAT_ID": 28474, "ELEMENT_SET_NO": 999, "REV_AT_EPOCH": 15454, "BSTAR": 0, "MEAN_MOTION_DOT": -7.7e-07, "MEAN_MOTION_DDOT": 0}, "tle": {"line1": "1 28474U 04045A   25339.84735968 -.00000077  00000+0  00000+0 0  9993", "line2": "2 28474  55.2441 332.6831 0170622 308.9503  46.5475  2.00569010154543"}}, "geometry": {"type": "Point", "coordinates": [-5.112307459164459, 28.592116490183255]}}, {"type": "Feature", "properties": {"norad_id": 28874, "name": "GPS BIIRM-1 (PRN 17)", "group": "gnss", "lat": -5.384231767019761, "lon": -82.83976831555948, "alt_km": 20003.826475226146, "timestamp": "2025-12-06T09:34:17.155891+00:00", "meta": {"OBJECT_NAME": "GPS BIIRM-1 (PRN 17)", "OBJECT_ID": "2005-038A", "EPOCH": "2025-12-05T22:06:01.734624", "MEAN_MOTION": 2.00548596, "ECCENTRICITY": 0.01327155, "INCLINATION": 55.0381, "RA_OF_ASC_NODE": 280.9756, "ARG_OF_PERICENTER": 293.5052, "MEAN_ANOMALY": 73.5327, "EPHEMERIS_TYPE": 0, "CLASSIFICATION_TYPE": "U", "NORAD_CAT_ID": 28874, "ELEMENT_SET_NO": 999, "REV_AT_EPOCH": 14796, "BSTAR": 0, "MEAN_MOTION_DOT": -3.6e-07, "MEAN_MOTION_DDOT": 0}, "tle": {"line1": "1 28874U 05038A   25339.92085341 -.00000036  00000+0  00000+0 0  9997", "line2": "2 28874  55.0381 280.9756 0132715 293.5052  73.5327  2.00548596147968"}}, "geometry": {"type": "Point", "coordinates": [-82.83976831555948, -5.384231767019761]}}, {"type": "Feature", "properties": {"norad_id": 28899, "name": "INMARSAT 4-F2 (SOUTHPAN/PRN 122)", "group": "gnss", "lat": -3.1765599635865884, "lon": 2.641305803778423, "alt_km": 35790.915309808064, "timestamp": "2025-12-06T09:34:17.155906+00:00", "meta": {"OBJECT_NAME": "INMARSAT 4-F2 (SOUTHPAN/PRN 122)", "OBJECT_ID": "2005-044A", "EPOCH": "2025-12-05T14:22:47.068032", "MEAN_MOTION": 1.00270981, "ECCENTRICITY": 0.00034339, "INCLINATION": 4.8431, "RA_OF_ASC_NODE": 43.6699, "ARG_OF_PERICENTER": 212.4325, "MEAN_ANOMALY": 177.7462, "EPHEMERIS_TYPE": 0, "CLASSIFICATION_TYPE": "U", "NORAD_CAT_ID": 28899, "ELEMENT_SET_NO": 999, "REV_AT_EPOCH": 7358, "BSTAR": 0, "MEAN_MOTION_DOT": -2.53e-06, "MEAN_MOTION_DDOT": 0}, "tle": {"line1": "1 28899U 05044A   25339.59915588 -.00000253  00000+0  00000+0 0  9990", "line2": "2 28899   4.8431  43.6699 0003433 212.4325 177.7462  1.00270981 73582"}}, "geometry": {"type": "Point", "coordinates": [2.641305803778423, -3.1765599635865884]}}, {"type": "Feature", "properties": {"norad_id": 29486, "name": "GPS BIIRM-2 (PRN 31)", "group": "gnss", "lat": -52.17123666253599, "lon": 44.93711403427341, "alt_km": 20449.336540819455, "timestamp": "2025-12-06T09:34:17.155920+00:00", "meta": {"OBJECT_NAME": "GPS BIIRM-2 (PRN 31)", "OBJECT_ID": "2006-042A", "EPOCH": "2025-12-05T13:29:33.507168", "MEAN_MOTION": 2.00554326, "ECCENTRICITY": 0.01073593, "INCLINATION": 54.693, "RA_OF_ASC_NODE": 159.0256, "ARG_OF_PERICENTER": 51.7863, "MEAN_ANOMALY": 320.1689, "EPHEMERIS_TYPE": 0, "CLASSIFICATION_TYPE": "U", "NORAD_CAT_ID": 29486, "ELEMENT_SET_NO": 999, "REV_AT_EPOCH": 14051, "BSTAR": 0, "MEAN_MOTION_DOT": 7.3e-07, "MEAN_MOTION_DDOT": 0}, "tle": {"line1": "1 29486U 06042A   25339.56219337  .00000073  00000+0  00000+0 0  9997", "line2": "2 29486  54.6930 159.0256 0107359  51.7863 320.1689  2.00554326140518"}}, "geometry": {"type": "Point", "coordinates": [44.93711403427341, -52.17123666253599]}}, {"type": "Feature", "properties": {"norad_id": 29601, "name": "GPS BIIRM-3 (PRN 12)", "group": "gnss", "lat": -37.18230508658964, "lon": -170.4542199194054, "alt_km": 20348.90402814932, "timestamp": "2025-12-06T09:34:17.155933+00:00", "meta": {"OBJECT_NAME": "GPS BIIRM-3 (PRN 12)", "OBJECT_ID": "2006-052A", "EPOCH": "2025-12-04T23:15:57.837888", "MEAN_MOTION": 2.00572904, "ECCENTRICITY": 0.00875961, "INCLINATION": 54.9722, "RA_OF_ASC_NODE": 221.7066, "ARG_OF_PERICENTER": 87.3581, "MEAN_ANOMALY": 273.7369, "EPHEMERIS_TYPE": 0, "CLASSIFICATION_TYPE": "U", "NORAD_CAT_ID": 29601, "ELEMENT_SET_NO": 999, "REV_AT_EPOCH": 13951, "BSTAR": 0, "MEAN_MOTION_DOT": 5.8e-07, "MEAN_MOTION_DDOT": 0}, "tle": {"line1": "1 29601U 06052A   25338.96941942  .00000058  00000+0  00000+0 0  9997", "line2": "2 29601  54.9722 221.7066 0087596  87.3581 273.7369  2.00572904139515"}}, "geometry": {"type": "Point", "coordinates": [-170.4542199194054, -37.18230508658964]}}]}